{
  "type": "FeatureCollection",
  "features": [
    {
      "type": "Feature",
      "geometry": { "type": "Point", "coordinates": [131.399, 34.408] },
      "properties": {
        "id": "hagi",
        "seriesId": "yoshida-shoin",
        "timeRange": "series"
      }
    },
    {
      "type": "Feature",
      "geometry": { "type": "Point", "coordinates": [22.43, 37.07] },
      "properties": {
        "id": "sparta-city",
        "seriesId": "sparta",
        "timeRange": "series"
      }
    },
    {
      "type": "Feature",
      "geometry": { "type": "Point", "coordinates": [108.709, 34.333] },
      "properties": {
        "id": "xianyang",
        "seriesId": "shin-no-shikotei",
        "timeRange": "series"
      }
    },
    {
      "type": "Feature",
      "geometry": { "type": "Point", "coordinates": [104.07, 30.66] },
      "properties": {
        "id": "chengdu",
        "seriesId": "shokatsu-komei",
        "timeRange": "series"
      }
    },
    {
      "type": "Feature",
      "geometry": { "type": "Point", "coordinates": [13.405, 52.52] },
      "properties": {
        "id": "berlin",
        "seriesId": "hitler",
        "timeRange": "series"
      }
    },
    {
      "type": "Feature",
      "geometry": { "type": "Point", "coordinates": [2.349, 48.853] },
      "properties": {
        "id": "paris",
        "seriesId": "france-kakumei",
        "timeRange": "series"
      }
    },
    {
      "type": "Feature",
      "geometry": { "type": "Point", "coordinates": [22.525, 40.76] },
      "properties": {
        "id": "pella",
        "seriesId": "alexandros",
        "timeRange": "series"
      }
    },
    {
      "type": "Feature",
      "geometry": { "type": "Point", "coordinates": [-90.2, 38.63] },
      "properties": {
        "id": "st-louis",
        "seriesId": "america-kaitakushi",
        "timeRange": "series"
      }
    },
    {
      "type": "Feature",
      "geometry": { "type": "Point", "coordinates": [12.485, 41.893] },
      "properties": {
        "id": "forum-romanum",
        "seriesId": "julius-caesar",
        "timeRange": "series"
      }
    },
    {
      "type": "Feature",
      "geometry": { "type": "Point", "coordinates": [12.643, 51.866] },
      "properties": {
        "id": "wittenberg",
        "seriesId": "shukyokaikaku",
        "timeRange": "series"
      }
    },
    {
      "type": "Feature",
      "geometry": { "type": "Point", "coordinates": [-0.126, 51.504] },
      "properties": {
        "id": "whitehall",
        "seriesId": "elizabeth-1",
        "timeRange": "series"
      }
    },
    {
      "type": "Feature",
      "geometry": { "type": "Point", "coordinates": [136.14, 35.156] },
      "properties": {
        "id": "azuchi",
        "seriesId": "oda-nobunaga",
        "timeRange": "series"
      }
    },
    {
      "type": "Feature",
      "geometry": { "type": "Point", "coordinates": [13.038, 52.404] },
      "properties": {
        "id": "potsdam",
        "seriesId": "friedrich-daio",
        "timeRange": "series"
      }
    },
    {
      "type": "Feature",
      "geometry": { "type": "Point", "coordinates": [29.92, 31.2] },
      "properties": {
        "id": "alexandria",
        "seriesId": "cleopatra",
        "timeRange": "series"
      }
    },
    {
      "type": "Feature",
      "geometry": { "type": "Point", "coordinates": [10.323, 36.853] },
      "properties": {
        "id": "carthage",
        "seriesId": "hannibal",
        "timeRange": "series"
      }
    },
    {
      "type": "Feature",
      "geometry": { "type": "Point", "coordinates": [124.83, 41.66] },
      "properties": {
        "id": "hetu-ala",
        "seriesId": "nurhaci",
        "timeRange": "series"
      }
    },
    {
      "type": "Feature",
      "geometry": { "type": "Point", "coordinates": [135.526, 34.687] },
      "properties": {
        "id": "osaka",
        "seriesId": "hideyoshi-ieyasu",
        "timeRange": "series"
      }
    },
    {
      "type": "Feature",
      "geometry": { "type": "Point", "coordinates": [78.021, 27.18] },
      "properties": {
        "id": "agra",
        "seriesId": "mughal-teikoku",
        "timeRange": "series"
      }
    },
    {
      "type": "Feature",
      "geometry": { "type": "Point", "coordinates": [115.486, 33.861] },
      "properties": {
        "id": "ku",
        "seriesId": "roshi-soshi",
        "timeRange": "series"
      }
    },
    {
      "type": "Feature",
      "geometry": { "type": "Point", "coordinates": [117.185, 34.262] },
      "properties": {
        "id": "pengcheng",
        "seriesId": "kou-to-ryuho",
        "timeRange": "series"
      }
    },
    {
      "type": "Feature",
      "geometry": { "type": "Point", "coordinates": [45.637, 31.324] },
      "properties": {
        "id": "uruk",
        "seriesId": "gilgamesh",
        "timeRange": "series"
      }
    },
    {
      "type": "Feature",
      "geometry": { "type": "Point", "coordinates": [12.496, 41.903] },
      "properties": {
        "id": "rome",
        "seriesId": "teisei-roma",
        "timeRange": "series"
      }
    }
  ]
}
